NORAD_CAT_ID,OBJECT_NAME,OBJECT_TYPE,EPOCH,MEAN_MOTION,ECCENTRICITY,INCLINATION,RA_OF_ASC_NODE,ARG_OF_PERICENTER,MEAN_ANOMALY,BSTAR,MEAN_MOTION_DOT,MEAN_MOTION_DDOT,TLE_LINE0,TLE_LINE1,TLE_LINE2,SEMIMAJOR_AXIS,PERIOD,APOGEE,PERIGEE,DECAYED
50161.0,STARLINK-3304,PAYLOAD,2024-06-29 14:51:54,15.08837883,0.0001195,53.2146,153.7458,85.8799,274.233,3.9014e-05,3.33e-06,0.0,0 STARLINK-3304,1 50161U 21125F   24181.61937577  .00000333  00000-0  39014-4 0  9995,2 50161  53.2146 153.7458 0001195  85.8799 274.2330 15.08837883142662,6917.887,95.438,540.579,538.925,0.0
50161.0,STARLINK-3304,PAYLOAD,2024-06-29 21:13:27,15.08831338,0.0001818,53.216,152.5594,88.4701,271.6499,-1.7351e-05,-5.64e-06,0.0,0 STARLINK-3304,1 50161U 21125F   24181.88434467 -.00000564  00000-0 -17351-4 0  9992,2 50161  53.2160 152.5594 0001818  88.4701 271.6499 15.08831338143184,6917.907,95.438,541.03,538.514,0.0
50161.0,STARLINK-3304,PAYLOAD,2024-06-30 05:10:23,15.08823872,0.0001402,53.2167,151.0748,98.8767,261.2384,-7.9252e-05,-1.548e-05,0.0,0 STARLINK-3304,1 50161U 21125F   24182.21555237 -.00001548  00000-0 -79252-4 0  9990,2 50161  53.2167 151.0748 0001402  98.8767 261.2384 15.08823872142756,6917.93,95.439,540.765,538.825,0.0
50161.0,STARLINK-3304,PAYLOAD,2024-06-30 14:42:42,15.08833553,0.0001472,53.218,149.2903,96.3729,263.7431,2.3582e-06,-2.5e-06,0.0,0 STARLINK-3304,1 50161U 21125F   24182.61298644 -.00000250  00000-0  23582-5 0  9994,2 50161  53.2180 149.2903 0001472  96.3729 263.7431 15.08833553143298,6917.9,95.438,540.783,538.747,0.0
50161.0,STARLINK-3304,PAYLOAD,2024-07-01 05:01:09,15.08848004,0.0001433,53.2177,146.6138,99.6514,260.464,0.00011347,1.519e-05,0.0,0 STARLINK-3304,1 50161U 21125F   24183.20913669  .00001519  00000-0  11347-3 0  9993,2 50161  53.2177 146.6138 0001433  99.6514 260.4640 15.08848004142900,6917.856,95.437,540.712,538.73,0.0
50161.0,STARLINK-3304,PAYLOAD,2024-07-01 14:33:28,15.08843898,0.0001557,53.2161,144.8267,84.0413,276.0756,7.0379e-05,8.32e-06,0.0,0 STARLINK-3304,1 50161U 21125F   24183.60658061  .00000832  00000-0  70379-4 0  9997,2 50161  53.2161 144.8267 0001557  84.0413 276.0756 15.08843898143446,6917.868,95.437,540.811,538.656,0.0
50161.0,STARLINK-3304,PAYLOAD,2024-07-02 04:51:57,15.08835395,0.0001366,53.2162,142.1493,76.2018,283.9126,0.00011987,1.62e-05,0.0,0 STARLINK-3304,1 50161U 21125F   24184.20274781  .00001620  00000-0  11987-3 0  9992,2 50161  53.2162 142.1493 0001366  76.2018 283.9126 15.08835395143059,6917.894,95.438,540.704,538.814,0.0
50161.0,STARLINK-3304,PAYLOAD,2024-07-02 14:24:16,15.08837531,0.0001317,53.2164,140.3675,90.6991,269.4152,0.00010637,1.405e-05,0.0,0 STARLINK-3304,1 50161U 21125F   24184.60018698  .00001405  00000-0  10637-3 0  9991,2 50161  53.2164 140.3675 0001317  90.6991 269.4152 15.08837531143590,6917.888,95.438,540.664,538.842,0.0
50161.0,STARLINK-3304,PAYLOAD,2024-07-03 03:07:20,15.08844598,0.0001392,53.2154,137.9858,88.4193,271.6959,4.808e-05,4.77e-06,0.0,0 STARLINK-3304,1 50161U 21125F   24185.13010341  .00000477  00000-0  48080-4 0  9999,2 50161  53.2154 137.9858 0001392  88.4193 271.6959 15.08844598143193,6917.866,95.437,540.694,538.768,0.0
50161.0,STARLINK-3304,PAYLOAD,2024-07-03 14:15:02,15.0884802,0.0001198,53.2163,135.9052,100.8015,259.3112,6.5117e-06,-1.84e-06,0.0,0 STARLINK-3304,1 50161U 21125F   24185.59377884 -.00000184  00000-0  65117-5 0  9994,2 50161  53.2163 135.9052 0001198 100.8015 259.3112 15.08848020143742,6917.856,95.437,540.55,538.892,0.0
50161.0,STARLINK-3304,PAYLOAD,2024-07-04 06:08:53,15.08846494,0.000142,53.2167,132.9305,99.1013,261.014,6.2632e-05,7.09e-06,0.0,0 STARLINK-3304,1 50161U 21125F   24186.25617781  .00000709  00000-0  62632-4 0  9991,2 50161  53.2167 132.9305 0001420  99.1013 261.0140 15.08846494143362,6917.861,95.437,540.708,538.743,0.0
50161.0,STARLINK-3304,PAYLOAD,2024-07-04 14:05:49,15.08841337,0.0001469,53.2179,131.4432,101.3848,258.7309,4.6129e-05,4.46e-06,0.0,0 STARLINK-3304,1 50161U 21125F   24186.58738059  .00000446  00000-0  46129-4 0  9990,2 50161  53.2179 131.4432 0001469 101.3848 258.7309 15.08841337143894,6917.876,95.437,540.758,538.725,0.0
50161.0,STARLINK-3304,PAYLOAD,2024-07-05 02:48:54,15.0884455,0.0001565,53.2184,129.064,106.481,253.6354,3.7527e-05,3.09e-06,0.0,0 STARLINK-3304,1 50161U 21125F   24187.11729870  .00000309  00000-0  37527-4 0  9991,2 50161  53.2184 129.0640 0001565 106.4810 253.6354 15.08844550143496,6917.866,95.437,540.814,538.649,0.0
50161.0,STARLINK-3304,PAYLOAD,2024-07-06 02:39:42,15.08838187,0.0001407,53.2172,124.6077,90.6824,269.4329,2.9675e-05,1.84e-06,0.0,0 STARLINK-3304,1 50161U 21125F   24188.11090516  .00000184  00000-0  29675-4 0  9996,2 50161  53.2172 124.6077 0001407  90.6824 269.4329 15.08838187143645,6917.886,95.438,540.724,538.778,0.0
50161.0,STARLINK-3304,PAYLOAD,2024-07-06 12:12:01,15.08836183,0.0001282,53.2164,122.8226,86.04,274.0739,-5.3376e-05,-1.137e-05,0.0,0 STARLINK-3304,1 50161U 21125F   24188.50834855 -.00001137  00000-0 -53376-4 0  9997,2 50161  53.2164 122.8226 0001282  86.0400 274.0739 15.08836183144183,6917.892,95.438,540.644,538.87,0.0
50161.0,STARLINK-3304,PAYLOAD,2024-07-06 20:08:57,15.08829946,0.0001337,53.2164,121.336,93.6355,266.479,-1.2857e-05,-4.92e-06,0.0,0 STARLINK-3304,1 50161U 21125F   24188.83955339 -.00000492  00000-0 -12857-4 0  9996,2 50161  53.2164 121.3360 0001337  93.6355 266.4790 15.08829946143753,6917.911,95.438,540.701,538.851,0.0
50161.0,STARLINK-3304,PAYLOAD,2024-07-07 00:55:06,15.08833171,0.0001527,53.2179,120.4425,93.2182,266.8984,-9.1916e-06,-4.34e-06,0.0,0 STARLINK-3304,1 50161U 21125F   24189.03827220 -.00000434  00000-0 -91916-5 0  9996,2 50161  53.2179 120.4425 0001527  93.2182 266.8984 15.08833171144267,6917.901,95.438,540.823,538.71,0.0
50161.0,STARLINK-3304,PAYLOAD,2024-07-07 19:59:44,15.08838402,0.0001323,53.2175,116.876,89.6977,270.4167,6.2796e-05,7.12e-06,0.0,0 STARLINK-3304,1 50161U 21125F   24189.83315053  .00000712  00000-0  62796-4 0  9990,2 50161  53.2175 116.8760 0001323  89.6977 270.4167 15.08838402143905,6917.885,95.438,540.666,538.835,0.0
50161.0,STARLINK-3304,PAYLOAD,2024-07-08 11:53:35,15.08842543,0.0001071,53.2161,113.9007,74.8104,285.3007,0.00010064,1.314e-05,0.0,0 STARLINK-3304,1 50161U 21125F   24190.49554706  .00001314  00000-0  10064-3 0  9993,2 50161  53.2161 113.9007 0001071  74.8104 285.3007 15.08842543144483,6917.873,95.437,540.479,538.997,0.0
50161.0,STARLINK-3304,PAYLOAD,2024-07-09 03:47:26,15.08846582,0.000106,53.2169,110.9287,93.8354,266.2759,0.00013027,1.786e-05,0.0,0 STARLINK-3304,1 50161U 21125F   24191.15794479  .00001786  00000-0  13027-3 0  9995,2 50161  53.2169 110.9287 0001060  93.8354 266.2759 15.08846582144102,6917.86,95.437,540.459,538.992,0.0
50161.0,STARLINK-3304,PAYLOAD,2024-07-09 11:44:23,15.08833654,0.000132,53.2169,109.4421,87.4106,272.7038,1.9735e-05,2.6e-07,0.0,0 STARLINK-3304,1 50161U 21125F   24191.48915745  .00000026  00000-0  19735-4 0  9991,2 50161  53.2169 109.4421 0001320  87.4106 272.7038 15.08833654144151,6917.9,95.438,540.678,538.852,0.0
50161.0,STARLINK-3304,PAYLOAD,2024-07-09 22:52:05,15.08835194,0.0001495,53.2168,107.3593,82.4517,277.6645,-4.801e-05,-1.052e-05,0.0,0 STARLINK-3304,1 50161U 21125F   24191.95284110 -.00001052  00000-0 -48010-4 0  9998,2 50161  53.2168 107.3593 0001495  82.4517 277.6645 15.08835194144701,6917.895,95.438,540.794,538.726,0.0
50161.0,STARLINK-3304,PAYLOAD,2024-07-10 11:35:10,15.08841313,0.0001551,53.2188,104.9819,82.1591,277.9577,-1.1277e-05,-4.67e-06,0.0,0 STARLINK-3304,1 50161U 21125F   24192.48275756 -.00000467  00000-0 -11277-4 0  9997,2 50161  53.2188 104.9819 0001551  82.1591 277.9577 15.08841313144784,6917.876,95.437,540.814,538.668,0.0
50161.0,STARLINK-3304,PAYLOAD,2024-07-10 22:42:51,15.08843005,0.0001451,53.2174,102.9001,80.7748,279.3408,0.00011728,1.579e-05,0.0,0 STARLINK-3304,1 50161U 21125F   24192.94643319  .00001579  00000-0  11728-3 0  9995,2 50161  53.2174 102.9001 0001451  80.7748 279.3408 15.08843005144854,6917.871,95.437,540.74,538.732,0.0
50161.0,STARLINK-3304,PAYLOAD,2024-07-11 03:29:00,15.08853686,0.0001543,53.2188,102.006,84.4334,275.6834,0.00012545,1.71e-05,0.0,0 STARLINK-3304,1 50161U 21125F   24193.14514678  .00001710  00000-0  12545-3 0  9998,2 50161  53.2188 102.0060 0001543  84.4334 275.6834 15.08853686144408,6917.839,95.437,540.771,538.636,0.0
50161.0,STARLINK-3304,PAYLOAD,2024-07-12 03:19:47,15.08854114,0.0001409,53.2164,97.547,98.7221,261.3931,0.00027401,4.077e-05,0.0,0 STARLINK-3304,1 50161U 21125F   24194.13874833  .00004077  00000-0  27401-3 0  9996,2 50161  53.2164  97.5470 0001409  98.7221 261.3931 15.08854114144552,6917.837,95.437,540.677,538.728,0.0
50161.0,STARLINK-3304,PAYLOAD,2024-07-12 20:49:02,15.08846973,0.0001796,53.2172,94.2739,114.3084,245.8096,7.641e-05,9.28e-06,0.0,0 STARLINK-3304,1 50161U 21125F   24194.86739050  .00000928  00000-0  76410-4 0  9993,2 50161  53.2172  94.2739 0001796 114.3084 245.8096 15.08846973144669,6917.859,95.437,540.967,538.482,0.0
50161.0,STARLINK-3304,PAYLOAD,2024-07-12 22:24:25,15.08847833,0.0001749,53.2171,93.9767,112.5688,247.5489,9.4449e-05,1.216e-05,0.0,0 STARLINK-3304,1 50161U 21125F   24194.93363013  .00001216  00000-0  94449-4 0  9996,2 50161  53.2171  93.9767 0001749 112.5688 247.5489 15.08847833145159,6917.856,95.437,540.931,538.512,0.0
50161.0,STARLINK-3304,PAYLOAD,2024-07-13 03:10:35,15.08849114,0.0001477,53.2164,93.086,100.6368,259.479,0.0002018,2.926e-05,0.0,0 STARLINK-3304,1 50161U 21125F   24195.13235004  .00002926  00000-0  20180-3 0  9996,2 50161  53.2164  93.0860 0001477 100.6368 259.4790 15.08849114145181,6917.853,95.437,540.739,538.696,0.0
50161.0,STARLINK-3304,PAYLOAD,2024-07-13 20:39:49,15.08843795,0.0001442,53.2161,89.8145,110.3799,249.7348,9.4469e-05,1.216e-05,0.0,0 STARLINK-3304,1 50161U 21125F   24195.86099105  .00001216  00000-0  94469-4 0  9999,2 50161  53.2161  89.8145 0001442 110.3799 249.7348 15.08843795144814,6917.869,95.437,540.731,538.736,0.0
